NORAD_CAT_ID,OBJECT_NAME,OBJECT_TYPE,EPOCH,MEAN_MOTION,ECCENTRICITY,INCLINATION,RA_OF_ASC_NODE,ARG_OF_PERICENTER,MEAN_ANOMALY,BSTAR,MEAN_MOTION_DOT,MEAN_MOTION_DDOT,TLE_LINE0,TLE_LINE1,TLE_LINE2,SEMIMAJOR_AXIS,PERIOD,APOGEE,PERIGEE,DECAYED
52669.0,STARLINK-3972,PAYLOAD,2023-12-10 23:49:05,15.08839401,0.0001444,53.216,233.8819,97.6671,262.4485,0.00012892,1.764e-05,0.0,0 STARLINK-3972,1 52669U 22053P   23344.99241973  .00001764  00000-0  12892-3 0  9993,2 52669  53.2160 233.8819 0001444  97.6671 262.4485 15.08839401 87296,6917.882,95.438,540.746,538.748,0.0
52669.0,STARLINK-3972,PAYLOAD,2023-12-11 20:29:06,15.08837729,0.0001517,53.2159,230.0175,101.3819,258.7343,5.5348e-05,5.93e-06,0.0,0 STARLINK-3972,1 52669U 22053P   23345.85354222  .00000593  00000-0  55348-4 0  9994,2 52669  53.2159 230.0175 0001517 101.3819 258.7343 15.08837729 87423,6917.887,95.438,540.802,538.703,0.0
52669.0,STARLINK-3972,PAYLOAD,2023-12-11 22:04:29,15.08836638,0.0001498,53.2166,229.72,102.6251,257.4908,8.1259e-05,1.005e-05,0.0,0 STARLINK-3972,1 52669U 22053P   23345.91978481  .00001005  00000-0  81259-4 0  9999,2 52669  53.2166 229.7200 0001498 102.6251 257.4908 15.08836638 87439,6917.891,95.438,540.792,538.719,0.0
52669.0,STARLINK-3972,PAYLOAD,2023-12-12 21:55:16,15.08839436,0.0001507,53.2164,225.2622,106.3901,253.7257,9.6255e-05,1.244e-05,0.0,0 STARLINK-3972,1 52669U 22053P   23346.91338618  .00001244  00000-0  96255-4 0  9999,2 52669  53.2164 225.2622 0001507 106.3901 253.7257 15.08839436 87581,6917.882,95.438,540.79,538.705,0.0
52669.0,STARLINK-3972,PAYLOAD,2023-12-12 23:30:39,15.08841385,0.0001393,53.2161,224.962,90.3792,269.736,0.00010277,1.348e-05,0.0,0 STARLINK-3972,1 52669U 22053P   23346.97962523  .00001348  00000-0  10277-3 0  9997,2 52669  53.2161 224.9620 0001393  90.3792 269.7360 15.08841385 87594,6917.876,95.437,540.705,538.777,0.0
52669.0,STARLINK-3972,PAYLOAD,2023-12-13 21:46:03,15.08843425,0.0001377,53.2159,220.8025,87.2869,272.8281,0.00016324,2.311e-05,0.0,0 STARLINK-3972,1 52669U 22053P   23347.90698312  .00002311  00000-0  16324-3 0  9993,2 52669  53.2159 220.8025 0001377  87.2869 272.8281 15.08843425 87737,6917.87,95.437,540.688,538.782,0.0
52669.0,STARLINK-3972,PAYLOAD,2023-12-13 23:21:26,15.08845111,0.0001404,53.216,220.5054,90.0394,270.0759,0.00017936,2.568e-05,0.0,0 STARLINK-3972,1 52669U 22053P   23347.97322194  .00002568  00000-0  17936-3 0  9996,2 52669  53.2160 220.5054 0001404  90.0394 270.0759 15.08845111 87749,6917.865,95.437,540.701,538.758,0.0
52669.0,STARLINK-3972,PAYLOAD,2023-12-14 20:01:27,15.08838851,0.0001694,53.2157,216.6377,74.5851,285.5328,3.5308e-05,2.74e-06,0.0,0 STARLINK-3972,1 52669U 22053P   23348.83434820  .00000274  00000-0  35308-4 0  9998,2 52669  53.2157 216.6377 0001694  74.5851 285.5328 15.08838851 87875,6917.884,95.438,540.921,538.577,0.0
52669.0,STARLINK-3972,PAYLOAD,2023-12-14 21:36:50,15.08839468,0.0001703,53.2154,216.3406,73.9311,286.1868,4.1301e-05,3.69e-06,0.0,0 STARLINK-3972,1 52669U 22053P   23348.90058777  .00000369  00000-0  41301-4 0  9994,2 52669  53.2154 216.3406 0001703  73.9311 286.1868 15.08839468 87889,6917.882,95.438,540.925,538.569,0.0
52669.0,STARLINK-3972,PAYLOAD,2023-12-15 21:27:37,15.08841144,0.0001422,53.2154,211.8844,93.6298,266.4857,1.937e-06,-2.57e-06,0.0,0 STARLINK-3972,1 52669U 22053P   23349.89418932 -.00000257  00000-0  19370-5 0  9995,2 52669  53.2154 211.8844 0001422  93.6298 266.4857 15.08841144 88037,6917.877,95.437,540.726,538.758,0.0
52669.0,STARLINK-3972,PAYLOAD,2023-12-16 21:18:24,15.08844834,0.0001507,53.2148,207.4159,91.0031,269.1134,0.00019372,2.797e-05,0.0,0 STARLINK-3972,1 52669U 22053P   23350.88778602  .00002797  00000-0  19372-3 0  9999,2 52669  53.2148 207.4159 0001507  91.0031 269.1134 15.08844834 88184,6917.866,95.437,540.773,538.688,0.0
52669.0,STARLINK-3972,PAYLOAD,2023-12-17 19:33:48,15.08840881,0.0001551,53.2157,203.2481,92.6521,267.4649,6.571e-05,7.58e-06,0.0,0 STARLINK-3972,1 52669U 22053P   23351.81514716  .00000758  00000-0  65710-4 0  9990,2 52669  53.2157 203.2481 0001551  92.6521 267.4649 15.08840881 88322,6917.878,95.437,540.816,538.67,0.0
52669.0,STARLINK-3972,PAYLOAD,2023-12-17 21:09:11,15.08843057,0.0001553,53.2155,202.9501,92.0026,268.1144,9.9052e-05,1.289e-05,0.0,0 STARLINK-3972,1 52669U 22053P   23351.88138625  .00001289  00000-0  99052-4 0  9994,2 52669  53.2155 202.9501 0001553  92.0026 268.1144 15.08843057 88332,6917.871,95.437,540.81,538.662,0.0
52669.0,STARLINK-3972,PAYLOAD,2023-12-18 19:24:36,15.08837632,0.0001702,53.2166,198.7905,108.2972,251.8206,1.6642e-05,-2.3e-07,0.0,0 STARLINK-3972,1 52669U 22053P   23352.80875038 -.00000023  00000-0  16642-4 0  9993,2 52669  53.2166 198.7905 0001702 108.2972 251.8206 15.08837632 88475,6917.888,95.438,540.93,538.575,0.0
52669.0,STARLINK-3972,PAYLOAD,2023-12-19 20:50:46,15.08838063,0.0001559,53.2161,194.0359,105.5538,254.5626,6.3262e-05,7.19e-06,0.0,0 STARLINK-3972,1 52669U 22053P   23353.86859124  .00000719  00000-0  63262-4 0  9999,2 52669  53.2161 194.0359 0001559 105.5538 254.5626 15.08838063 88633,6917.886,95.438,540.83,538.673,0.0
52669.0,STARLINK-3972,PAYLOAD,2023-12-20 20:41:33,15.08836629,0.0001373,53.2158,189.5763,89.4032,270.7118,7.6942e-05,9.37e-06,0.0,0 STARLINK-3972,1 52669U 22053P   23354.86219550  .00000937  00000-0  76942-4 0  9994,2 52669  53.2158 189.5763 0001373  89.4032 270.7118 15.08836629 88788,6917.891,95.438,540.706,538.806,0.0
52669.0,STARLINK-3972,PAYLOAD,2023-12-22 18:47:42,15.0884524,0.0001527,53.2146,180.9525,51.0336,309.0792,-7.625e-06,-4.09e-06,0.0,0 STARLINK-3972,1 52669U 22053P   23356.78313462 -.00000409  00000-0 -76250-5 0  9993,2 52669  53.2146 180.9525 0001527  51.0336 309.0792 15.08845240 89075,6917.864,95.437,540.786,538.673,0.0
52669.0,STARLINK-3972,PAYLOAD,2023-12-23 12:16:57,15.08840133,0.0001237,53.2148,177.6842,93.4848,266.6286,-0.00019335,-3.364e-05,0.0,0 STARLINK-3972,1 52669U 22053P   23357.51177416 -.00003364  00000-0 -19335-3 0  9994,2 52669  53.2148 177.6842 0001237  93.4848 266.6286 15.08840133 89182,6917.88,95.438,540.601,538.889,0.0
52669.0,STARLINK-3972,PAYLOAD,2023-12-23 18:38:29,15.08841273,0.0001135,53.215,176.4943,95.0184,265.0938,-0.00021082,-3.642e-05,0.0,0 STARLINK-3972,1 52669U 22053P   23357.77673274 -.00003642  00000-0 -21082-3 0  9996,2 52669  53.2150 176.4943 0001135  95.0184 265.0938 15.08841273 89220,6917.876,95.437,540.527,538.956,0.0
52669.0,STARLINK-3972,PAYLOAD,2023-12-24 12:07:45,15.08825969,0.0001375,53.215,173.2236,77.2563,282.8582,0.00013461,1.854e-05,0.0,0 STARLINK-3972,1 52669U 22053P   23358.50538341  .00001854  00000-0  13461-3 0  9996,2 52669  53.2150 173.2236 0001375  77.2563 282.8582 15.08825969 89337,6917.923,95.438,540.739,538.837,0.0
52669.0,STARLINK-3972,PAYLOAD,2023-12-24 21:40:04,15.08829935,0.0001303,53.2146,171.4371,78.5066,281.6072,0.00017546,2.505e-05,0.0,0 STARLINK-3972,1 52669U 22053P   23358.90282464  .00002505  00000-0  17546-3 0  9994,2 52669  53.2146 171.4371 0001303  78.5066 281.6072 15.08829935 89399,6917.911,95.438,540.678,538.875,0.0
52669.0,STARLINK-3972,PAYLOAD,2023-12-25 11:58:32,15.08825181,0.0001326,53.2144,168.7598,83.9761,276.1382,3.7542e-05,3.09e-06,0.0,0 STARLINK-3972,1 52669U 22053P   23359.49899247  .00000309  00000-0  37542-4 0  9991,2 52669  53.2144 168.7598 0001326  83.9761 276.1382 15.08825181 89486,6917.926,95.438,540.708,538.873,0.0
52669.0,STARLINK-3972,PAYLOAD,2023-12-25 18:20:05,15.08828409,0.0001264,53.2159,167.5721,77.886,282.2273,7.8329e-05,9.59e-06,0.0,0 STARLINK-3972,1 52669U 22053P   23359.76395260  .00000959  00000-0  78329-4 0  9996,2 52669  53.2159 167.5721 0001264  77.8860 282.2273 15.08828409 89528,6917.916,95.438,540.655,538.906,0.0
52669.0,STARLINK-3972,PAYLOAD,2023-12-26 15:00:06,15.08834983,0.0001285,53.2162,163.7036,94.3669,265.747,0.0001187,1.601e-05,0.0,0 STARLINK-3972,1 52669U 22053P   23360.62507311  .00001601  00000-0  11870-3 0  9997,2 52669  53.2162 163.7036 0001285  94.3669 265.7470 15.08834983 89656,6917.896,95.438,540.65,538.872,0.0
52669.0,STARLINK-3972,PAYLOAD,2023-12-26 16:35:29,15.08835713,0.0001281,53.2161,163.4062,94.1506,265.9632,0.00012377,1.682e-05,0.0,0 STARLINK-3972,1 52669U 22053P   23360.69131288  .00001682  00000-0  12377-3 0  9992,2 52669  53.2161 163.4062 0001281  94.1506 265.9632 15.08835713 89660,6917.893,95.438,540.645,538.872,0.0
52669.0,STARLINK-3972,PAYLOAD,2023-12-27 14:50:53,15.08834885,0.0001242,53.2162,159.2444,88.2451,271.8684,0.00010579,1.396e-05,0.0,0 STARLINK-3972,1 52669U 22053P   23361.61867960  .00001396  00000-0  10579-3 0  9992,2 52669  53.2162 159.2444 0001242  88.2451 271.8684 15.08834885 89806,6917.896,95.438,540.62,538.902,0.0
52669.0,STARLINK-3972,PAYLOAD,2023-12-27 19:37:03,15.0883942,0.0001263,53.2162,158.3521,89.6739,270.4398,0.00014189,1.971e-05,0.0,0 STARLINK-3972,1 52669U 22053P   23361.81739669  .00001971  00000-0  14189-3 0  9998,2 52669  53.2162 158.3521 0001263  89.6739 270.4398 15.08839420 89839,6917.882,95.438,540.621,538.873,0.0
52669.0,STARLINK-3972,PAYLOAD,2023-12-28 14:41:40,15.08839169,0.0001288,53.2162,154.7835,93.0978,267.0161,6.4924e-05,7.46e-06,0.0,0 STARLINK-3972,1 52669U 22053P   23362.61227977  .00000746  00000-0  64924-4 0  9993,2 52669  53.2162 154.7835 0001288  93.0978 267.0161 15.08839169 89951,6917.883,95.438,540.639,538.857,0.0
52669.0,STARLINK-3972,PAYLOAD,2023-12-28 19:27:50,15.08842626,0.0001298,53.2163,153.8916,93.9201,266.194,8.682e-05,1.094e-05,0.0,0 STARLINK-3972,1 52669U 22053P   23362.81099680  .00001094  00000-0  86820-4 0  9999,2 52669  53.2163 153.8916 0001298  93.9201 266.1940 15.08842626 89981,6917.872,95.437,540.635,538.839,0.0
52669.0,STARLINK-3972,PAYLOAD,2023-12-29 14:32:28,15.08838922,0.0001418,53.2171,150.3239,86.5248,273.5906,4.4117e-05,4.14e-06,0.0,0 STARLINK-3972,1 52669U 22053P   23363.60588165  .00000414  00000-0  44117-4 0  9996,2 52669  53.2171 150.3239 0001418  86.5248 273.5906 15.08838922 90107,6917.884,95.438,540.73,538.768,0.0
